OBJECT_NAME,OBJECT_ID,EPOCH,MEAN_MOTION,ECCENTRICITY,INCLINATION,RA_OF_ASC_NODE,ARG_OF_PERICENTER,MEAN_ANOMALY,EPHEMERIS_TYPE,CLASSIFICATION_TYPE,NORAD_CAT_ID,ELEMENT_SET_NO,REV_AT_EPOCH,BSTAR,MEAN_MOTION_DOT,MEAN_MOTION_DDOT
ORBCOMM FM06,1997-084G,2026-07-16T06:17:04.234848,14.47628336,.0001578,45.0136,272.7395,235.2646,166.1217,0,U,25118,999,49860,.15536537E-3,.432E-5,0
ORBCOMM FM04,1998-007C,2026-07-16T00:43:10.754112,14.35785362,.00419717,107.9633,228.7844,275.5031,84.1323,0,U,25159,999,48073,.16174988E-3,.339E-5,0
ORBCOMM FM19,1998-046C,2026-07-16T04:15:53.310240,14.39542327,.00032167,44.9935,105.7519,69.0417,82.7920,0,U,25415,999,46095,.16612371E-3,.38E-5,0
ORBCOMM FM20,1998-046D,2026-07-16T02:53:48.083424,14.38101089,.00013172,44.9934,114.2656,4.5535,355.5325,0,U,25416,999,46095,.14378448E-3,.297E-5,0
ORBCOMM FM27,1998-053G,2026-07-16T01:33:45.255168,14.39185706,.00023782,45.0036,198.1872,294.2041,65.8559,0,U,25481,999,45439,.14185604E-3,.301E-5,0
ORBCOMM FM32,1999-065C,2026-07-15T22:19:56.705088,14.37168558,.0005749,45.0159,37.1820,195.6927,164.3744,0,U,25982,999,39122,.13289E-3,.257E-5,0
ORBCOMM FM109,2014-040A,2026-07-15T07:33:26.350848,14.58872584,.00014907,47.0043,318.5000,322.3297,37.7484,0,U,40086,999,63845,.5738444E-4,.1E-5,0
ORBCOMM FM110,2015-081D,2026-07-16T03:23:45.424608,14.58918610,.00036228,47.0004,224.5348,226.4287,133.6298,0,U,41182,999,56185,.67064263E-4,.146E-5,0
ORBCOMM FM118,2015-081E,2026-07-16T02:34:43.749120,14.58904246,.0002933,47.0024,225.0341,190.6424,169.4400,0,U,41183,999,56195,.446448E-4,.4E-6,0
ORBCOMM FM112,2015-081F,2026-07-16T05:57:41.638176,14.58939394,.00036367,46.9982,132.8190,332.6396,27.4298,0,U,41184,999,56319,.89968229E-4,.254E-5,0
ORBCOMM FM113,2015-081G,2026-07-16T05:25:29.680608,14.58882608,.00021747,46.9999,133.3164,325.3176,34.7567,0,U,41185,999,56317,.58501288E-4,.105E-5,0
ORBCOMM FM108,2015-081J,2026-07-15T23:34:53.289408,14.58911191,.00025944,47.0055,46.0489,325.0041,35.0674,0,U,41187,999,56428,.86643122E-4,.239E-5,0
ORBCOMM FM117,2015-081K,2026-07-15T22:45:33.338592,14.58898153,.0003013,47.0019,44.8376,332.4251,27.6475,0,U,41188,999,56432,.81799E-4,.215E-5,0
ORBCOMM FM116,2015-081L,2026-07-16T04:51:25.314912,14.58906396,.00015667,47.0016,133.4253,232.4849,127.5895,0,U,41189,999,56317,.53592385E-4,.82E-6,0
