ORBCOMM FM06            
1 25118U 97084G   26197.26185457  .00000432  00000+0  15537-3 0  9990
2 25118  45.0136 272.7395 0001578 235.2646 166.1217 14.47628336498607
ORBCOMM FM04            
1 25159U 98007C   26197.02998558  .00000339  00000+0  16175-3 0  9994
2 25159 107.9633 228.7844 0041971 275.5031  84.1323 14.35785362480730
ORBCOMM FM19            
1 25415U 98046C   26197.17770035  .00000380  00000+0  16612-3 0  9998
2 25415  44.9935 105.7519 0003216  69.0417  82.7920 14.39542327460952
ORBCOMM FM20            
1 25416U 98046D   26197.12069541  .00000297  00000+0  14378-3 0  9991
2 25416  44.9934 114.2656 0001317   4.5535 355.5325 14.38101089460959
ORBCOMM FM27            
1 25481U 98053G   26197.06510712  .00000301  00000+0  14186-3 0  9998
2 25481  45.0036 198.1872 0002378 294.2041  65.8559 14.39185706454395
ORBCOMM FM32            
1 25982U 99065C   26196.93051742  .00000257  00000+0  13289-3 0  9999
2 25982  45.0159  37.1820 0005749 195.6927 164.3744 14.37168558391221
ORBCOMM FM109           
1 40086U 14040A   26196.31488832  .00000100  00000+0  57384-4 0  9999
2 40086  47.0043 318.5000 0001490 322.3297  37.7484 14.58872584638458
ORBCOMM FM110           
1 41182U 15081D   26197.14149797  .00000146  00000+0  67064-4 0  9995
2 41182  47.0004 224.5348 0003622 226.4287 133.6298 14.58918610561855
ORBCOMM FM118           
1 41183U 15081E   26197.10745080  .00000040  00000+0  44645-4 0  9992
2 41183  47.0024 225.0341 0002933 190.6424 169.4400 14.58904246561959
ORBCOMM FM112           
1 41184U 15081F   26197.24839859  .00000254  00000+0  89968-4 0  9990
2 41184  46.9982 132.8190 0003636 332.6396  27.4298 14.58939394563193
ORBCOMM FM113           
1 41185U 15081G   26197.22603797  .00000105  00000+0  58501-4 0  9993
2 41185  46.9999 133.3164 0002174 325.3176  34.7567 14.58882608563173
ORBCOMM FM108           
1 41187U 15081J   26196.98256122  .00000239  00000+0  86643-4 0  9999
2 41187  47.0055  46.0489 0002594 325.0041  35.0674 14.58911191564280
ORBCOMM FM117           
1 41188U 15081K   26196.94830253  .00000215  00000+0  81799-4 0  9990
2 41188  47.0019  44.8376 0003013 332.4251  27.6475 14.58898153564327
ORBCOMM FM116           
1 41189U 15081L   26197.20237633  .00000082  00000+0  53592-4 0  9996
2 41189  47.0016 133.4253 0001566 232.4849 127.5895 14.58906396563174
